NORAD_CAT_ID,OBJECT_NAME,OBJECT_TYPE,EPOCH,MEAN_MOTION,ECCENTRICITY,INCLINATION,RA_OF_ASC_NODE,ARG_OF_PERICENTER,MEAN_ANOMALY,BSTAR,MEAN_MOTION_DOT,MEAN_MOTION_DDOT,TLE_LINE0,TLE_LINE1,TLE_LINE2,SEMIMAJOR_AXIS,PERIOD,APOGEE,PERIGEE,DECAYED
52132.0,STARLINK-3718,PAYLOAD,2024-02-07 20:22:35,15.08833548,0.0001436,53.2157,244.6613,94.5289,265.5867,2.1216e-05,5e-07,0.0,0 STARLINK-3718,1 52132U 22029AW  24038.84902752  .00000050  00000-0  21216-4 0  9993,2 52132  53.2157 244.6613 0001436  94.5289 265.5867 15.08833548106073,6917.9,95.438,540.759,538.772,0.0
52132.0,STARLINK-3718,PAYLOAD,2024-02-08 20:13:22,15.08844937,0.000128,53.2156,240.1981,92.7604,267.3534,1.2899e-05,-8.3e-07,0.0,0 STARLINK-3718,1 52132U 22029AW  24039.84262241 -.00000083  00000-0  12899-4 0  9990,2 52132  53.2156 240.1981 0001280  92.7604 267.3534 15.08844937106221,6917.865,95.437,540.616,538.845,0.0
52132.0,STARLINK-3718,PAYLOAD,2024-02-09 13:42:37,15.08833897,0.0001345,53.2157,236.9338,94.2566,265.858,8.6442e-05,1.088e-05,0.0,0 STARLINK-3718,1 52132U 22029AW  24040.57126988  .00001088  00000-0  86442-4 0  9999,2 52132  53.2157 236.9338 0001345  94.2566 265.8580 15.08833897106336,6917.899,95.438,540.695,538.834,0.0
52132.0,STARLINK-3718,PAYLOAD,2024-02-09 20:04:10,15.08834585,0.0001305,53.2158,235.7434,93.0838,267.0303,8.3202e-05,1.036e-05,0.0,0 STARLINK-3718,1 52132U 22029AW  24040.83623050  .00001036  00000-0  83202-4 0  9994,2 52132  53.2158 235.7434 0001305  93.0838 267.0303 15.08834585106372,6917.897,95.438,540.665,538.859,0.0
52132.0,STARLINK-3718,PAYLOAD,2024-02-10 21:30:20,15.08843776,0.0001301,53.2165,230.984,94.5824,265.5317,9.1963e-05,1.176e-05,0.0,0 STARLINK-3718,1 52132U 22029AW  24041.89606671  .00001176  00000-0  91963-4 0  9999,2 52132  53.2165 230.9840 0001301  94.5824 265.5317 15.08843776106533,6917.869,95.437,540.634,538.834,0.0
52132.0,STARLINK-3718,PAYLOAD,2024-02-11 11:48:48,15.08842493,0.0001229,53.2164,228.3103,103.8498,256.263,9.5596e-05,1.234e-05,0.0,0 STARLINK-3718,1 52132U 22029AW  24042.49222662  .00001234  00000-0  95596-4 0  9991,2 52132  53.2164 228.3103 0001229 103.8498 256.2630 15.08842493106625,6917.873,95.437,540.588,538.888,0.0
52132.0,STARLINK-3718,PAYLOAD,2024-02-11 19:45:43,15.0884656,0.000122,53.2166,226.8235,100.5192,259.5937,0.00012612,1.72e-05,0.0,0 STARLINK-3718,1 52132U 22029AW  24042.82342327  .00001720  00000-0  12612-3 0  9996,2 52132  53.2166 226.8235 0001220 100.5192 259.5937 15.08846560106672,6917.86,95.437,540.569,538.881,0.0
52132.0,STARLINK-3718,PAYLOAD,2024-02-12 19:36:31,15.08845519,0.0001322,53.2171,222.3641,83.5656,276.5486,5.9251e-05,6.55e-06,0.0,0 STARLINK-3718,1 52132U 22029AW  24043.81702573  .00000655  00000-0  59251-4 0  9996,2 52132  53.2171 222.3641 0001322  83.5656 276.5486 15.08845519106826,6917.864,95.437,540.643,538.814,0.0
52132.0,STARLINK-3718,PAYLOAD,2024-02-12 21:11:53,15.08849138,0.000124,53.2162,222.0656,91.0136,269.0998,3.911e-05,3.35e-06,0.0,0 STARLINK-3718,1 52132U 22029AW  24043.88326244  .00000335  00000-0  39110-4 0  9997,2 52132  53.2162 222.0656 0001240  91.0136 269.0998 15.08849138106832,6917.852,95.437,540.575,538.86,0.0
52132.0,STARLINK-3718,PAYLOAD,2024-02-13 11:30:22,15.08841848,0.0001118,53.2165,219.3868,106.1184,253.9931,-3.2175e-05,-8e-06,0.0,0 STARLINK-3718,1 52132U 22029AW  24044.47942839 -.00000800  00000-0 -32175-4 0  9990,2 52132  53.2165 219.3868 0001118 106.1184 253.9931 15.08841848106923,6917.875,95.437,540.513,538.966,0.0
52132.0,STARLINK-3718,PAYLOAD,2024-02-13 17:51:55,15.08841839,0.0001185,53.2151,218.1989,96.073,264.0397,2.0132e-05,3.3e-07,0.0,0 STARLINK-3718,1 52132U 22029AW  24044.74438734  .00000033  00000-0  20132-4 0  9990,2 52132  53.2151 218.1989 0001185  96.0730 264.0397 15.08841839106960,6917.875,95.437,540.56,538.92,0.0
52132.0,STARLINK-3718,PAYLOAD,2024-02-14 14:31:56,15.08828989,0.0001316,53.2148,214.3323,110.3919,249.7215,0.00016115,2.277e-05,0.0,0 STARLINK-3718,1 52132U 22029AW  24045.60550985  .00002277  00000-0  16115-3 0  9996,2 52132  53.2148 214.3323 0001316 110.3919 249.7215 15.08828989107096,6917.914,95.438,540.689,538.869,0.0
52132.0,STARLINK-3718,PAYLOAD,2024-02-14 17:42:42,15.08840496,0.0001133,53.2157,213.7392,94.3322,265.7799,-3.0653e-06,-3.37e-06,0.0,0 STARLINK-3718,1 52132U 22029AW  24045.73798968 -.00000337  00000-0 -30653-5 0  9997,2 52132  53.2157 213.7392 0001133  94.3322 265.7799 15.08840496107116,6917.879,95.438,540.528,538.96,0.0
52132.0,STARLINK-3718,PAYLOAD,2024-02-15 14:22:43,15.08835523,0.0001216,53.2158,209.873,87.6771,272.4361,3.117e-05,2.08e-06,0.0,0 STARLINK-3718,1 52132U 22029AW  24046.59911419  .00000208  00000-0  31170-4 0  9999,2 52132  53.2158 209.8730 0001216  87.6771 272.4361 15.08835523107243,6917.894,95.438,540.6,538.918,0.0
52132.0,STARLINK-3718,PAYLOAD,2024-02-15 17:33:29,15.08837563,0.0001221,53.2161,209.2788,85.5306,274.5826,4.6234e-05,4.48e-06,0.0,0 STARLINK-3718,1 52132U 22029AW  24046.73159278  .00000448  00000-0  46234-4 0  9995,2 52132  53.2161 209.2788 0001221  85.5306 274.5826 15.08837563107268,6917.888,95.438,540.598,538.908,0.0
52132.0,STARLINK-3718,PAYLOAD,2024-02-16 14:13:30,15.08832551,0.0001315,53.2171,205.4128,84.8422,275.272,2.9511e-05,1.82e-06,0.0,0 STARLINK-3718,1 52132U 22029AW  24047.59271933  .00000182  00000-0  29511-4 0  9997,2 52132  53.2171 205.4128 0001315  84.8422 275.2720 15.08832551107397,6917.903,95.438,540.678,538.858,0.0
52132.0,STARLINK-3718,PAYLOAD,2024-02-16 17:24:16,15.08838381,0.0001395,53.2177,204.819,86.1708,273.9444,6.8281e-05,7.99e-06,0.0,0 STARLINK-3718,1 52132U 22029AW  24047.72519519  .00000799  00000-0  68281-4 0  9998,2 52132  53.2177 204.8190 0001395  86.1708 273.9444 15.08838381107413,6917.885,95.438,540.715,538.785,0.0
52132.0,STARLINK-3718,PAYLOAD,2024-02-17 14:04:17,15.08838449,0.0001387,53.2183,200.9537,88.2188,271.8963,8.3048e-05,1.034e-05,0.0,0 STARLINK-3718,1 52132U 22029AW  24048.58631694  .00001034  00000-0  83048-4 0  9993,2 52132  53.2183 200.9537 0001387  88.2188 271.8963 15.08838449107540,6917.885,95.438,540.71,538.791,0.0
52132.0,STARLINK-3718,PAYLOAD,2024-02-17 17:15:03,15.08843731,0.0001449,53.2186,200.3603,100.4973,259.6182,0.00011734,1.58e-05,0.0,0 STARLINK-3718,1 52132U 22029AW  24048.71879246  .00001580  00000-0  11734-3 0  9993,2 52132  53.2186 200.3603 0001449 100.4973 259.6182 15.08843731107568,6917.869,95.437,540.736,538.732,0.0
52132.0,STARLINK-3718,PAYLOAD,2024-02-18 09:08:55,15.0883975,0.0001617,53.2191,197.3895,114.1852,245.9309,3.9856e-05,3.46e-06,0.0,0 STARLINK-3718,1 52132U 22029AW  24049.38119824  .00000346  00000-0  39856-4 0  9991,2 52132  53.2191 197.3895 0001617 114.1852 245.9309 15.08839750107663,6917.881,95.438,540.865,538.628,0.0
52132.0,STARLINK-3718,PAYLOAD,2024-02-18 13:55:05,15.08834415,0.000108,53.218,196.4915,84.9664,275.1452,-4.2519e-06,-3.55e-06,0.0,0 STARLINK-3718,1 52132U 22029AW  24049.57992478 -.00000355  00000-0 -42519-5 0  9999,2 52132  53.2180 196.4915 0001080  84.9664 275.1452 15.08834415107693,6917.897,95.438,540.51,539.015,0.0
52132.0,STARLINK-3718,PAYLOAD,2024-02-18 20:16:37,15.08838414,0.000148,53.218,195.3003,85.5122,274.6039,2.6456e-05,1.33e-06,0.0,0 STARLINK-3718,1 52132U 22029AW  24049.84488232  .00000133  00000-0  26456-4 0  9990,2 52132  53.2180 195.3003 0001480  85.5122 274.6039 15.08838414107732,6917.885,95.438,540.774,538.726,0.0
52132.0,STARLINK-3718,PAYLOAD,2024-02-19 02:38:10,15.08835726,0.0001472,53.2182,194.1109,86.8166,273.2995,3.0606e-05,1.99e-06,0.0,0 STARLINK-3718,1 52132U 22029AW  24050.10984452  .00000199  00000-0  30606-4 0  9990,2 52132  53.2182 194.1109 0001472  86.8166 273.2995 15.08835726107774,6917.893,95.438,540.777,538.74,0.0
52132.0,STARLINK-3718,PAYLOAD,2024-02-19 13:45:52,15.08843405,0.0001307,53.2171,192.0286,84.1244,275.9897,2.5045e-05,1.11e-06,0.0,0 STARLINK-3718,1 52132U 22029AW  24050.57352030  .00000111  00000-0  25045-4 0  9997,2 52132  53.2171 192.0286 0001307  84.1244 275.9897 15.08843405107841,6917.87,95.437,540.639,538.831,0.0
52132.0,STARLINK-3718,PAYLOAD,2024-02-19 16:56:38,15.08847661,0.0001424,53.2169,191.4357,93.1829,266.9326,6.4189e-05,7.34e-06,0.0,0 STARLINK-3718,1 52132U 22029AW  24050.70599643  .00000734  00000-0  64189-4 0  9998,2 52132  53.2169 191.4357 0001424  93.1829 266.9326 15.08847661107866,6917.857,95.437,540.707,538.737,0.0
52132.0,STARLINK-3718,PAYLOAD,2024-02-20 15:12:02,15.08837858,0.0001374,53.2161,187.2728,94.3285,265.7864,0.00011314,1.513e-05,0.0,0 STARLINK-3718,1 52132U 22029AW  24051.63336082  .00001513  00000-0  11314-3 0  9994,2 52132  53.2161 187.2728 0001374  94.3285 265.7864 15.08837858108004,6917.887,95.438,540.702,538.801,0.0
52132.0,STARLINK-3718,PAYLOAD,2024-02-20 18:22:48,15.08846252,0.0001491,53.2163,186.6755,94.381,265.7353,0.00012641,1.725e-05,0.0,0 STARLINK-3718,1 52132U 22029AW  24051.76583521  .00001725  00000-0  12641-3 0  9999,2 52132  53.2163 186.6755 0001491  94.3810 265.7353 15.08846252108026,6917.861,95.437,540.758,538.695,0.0
52132.0,STARLINK-3718,PAYLOAD,2024-02-21 15:02:49,15.08840517,0.000124,53.2176,182.8146,86.0958,274.0175,2.566e-05,1.21e-06,0.0,0 STARLINK-3718,1 52132U 22029AW  24052.62696032  .00000121  00000-0  25660-4 0  9992,2 52132  53.2176 182.8146 0001240  86.0958 274.0175 15.08840517108152,6917.879,95.438,540.602,538.886,0.0
52132.0,STARLINK-3718,PAYLOAD,2024-02-22 14:53:36,15.08840734,0.0001285,53.2169,178.351,101.1177,258.996,5.9282e-05,6.56e-06,0.0,0 STARLINK-3718,1 52132U 22029AW  24053.62055710  .00000656  00000-0  59282-4 0  9995,2 52132  53.2169 178.3510 0001285 101.1177 258.9960 15.08840734108301,6917.878,95.438,540.632,538.854,0.0
52132.0,STARLINK-3718,PAYLOAD,2024-02-23 11:33:36,15.08839025,0.0001356,53.2174,174.4852,103.6606,256.4537,4.3275e-05,4.01e-06,0.0,0 STARLINK-3718,1 52132U 22029AW  24054.48167780  .00000401  00000-0  43275-4 0  9994,2 52132  53.2174 174.4852 0001356 103.6606 256.4537 15.08839025108434,6917.883,95.438,540.686,538.81,0.0
